[Satellite]
VERSION=1.1
NAME=AEROCUBE 7C
NICKNAME=AEROCUBE 7C
TLE1=1 43043U 17071G   18020.91619232  .00003400  00000-0  10032-3 0  9990
TLE2=2 43043  51.6402  38.4276 0005931  91.3123 268.8540 15.37854549  6900
